STARLINK-30327          
1 57707U 23129K   26068.51769668  .00007635  00000+0  29314-3 0  9995
2 57707  42.9974  85.9834 0023030  70.8320 289.5022 15.26626807140903
STARLINK-35402          
1 66079U 25235X   26068.75339078  .00021484  00000+0  73535-3 0  9993
2 66079  53.1595 244.7968 0001090  68.6108 291.5009 15.30201306 22930
